NORAD_CAT_ID,OBJECT_NAME,OBJECT_TYPE,EPOCH,MEAN_MOTION,ECCENTRICITY,INCLINATION,RA_OF_ASC_NODE,ARG_OF_PERICENTER,MEAN_ANOMALY,BSTAR,MEAN_MOTION_DOT,MEAN_MOTION_DDOT,TLE_LINE0,TLE_LINE1,TLE_LINE2,SEMIMAJOR_AXIS,PERIOD,APOGEE,PERIGEE,DECAYED
51756.0,STARLINK-3513,PAYLOAD,2022-03-15 22:00:00,15.72967015,0.0001341999999999,53.2195,29.0826,79.6599,199.3723,0.0013646,0.00193427,0.0,0 STARLINK-3513,1 51756U 22016AU  22074.91667824  .00193427  00000-0  13646-2 0  9991,2 51756  53.2195  29.0826 0001342  79.6599 199.3723 15.72967015  4734,6728.56,91.547,351.327,349.522,0.0
51756.0,STARLINK-3513,PAYLOAD,2022-03-16 12:00:00,15.731927300000002,0.0001223,53.2187,26.1977,73.2479,271.1471,0.00016446,0.00022515,0.0,0 STARLINK-3513,1 51756U 22016AU  22075.50001157  .00022515  00000-0  16446-3 0  9999,2 51756  53.2187  26.1977 0001223  73.2479 271.1471 15.73192730  4829,6727.916,91.534,350.60400000000016,348.958,0.0
51756.0,STARLINK-3513,PAYLOAD,2022-03-16 14:00:01,15.73191607,0.0001171,53.2189,25.7848,78.4789,18.1472,0.00029491,0.00040955,0.0,0 STARLINK-3513,1 51756U 22016AU  22075.58334491  .00040955  00000-0  29491-3 0  9999,2 51756  53.2189  25.7848 0001171  78.4789  18.1472 15.73191607  3681,6727.919,91.534,350.57199999999995,348.996,0.0
51756.0,STARLINK-3513,PAYLOAD,2022-03-16 20:00:01,15.73198264,0.0001196,53.2181,24.547,86.4434,346.8688,0.00055868,0.00078517,0.0,0 STARLINK-3513,1 51756U 22016AU  22075.83334491  .00078517  00000-0  55868-3 0  9999,2 51756  53.2181  24.5470 0001196  86.4434 346.8688 15.73198264  3680,6727.9,91.533,350.57,348.96,0.0
51756.0,STARLINK-3513,PAYLOAD,2022-03-17 14:00:01,15.73216038,0.0001057,53.2175,20.8362,82.21700000000001,281.2996,-0.00021326,-0.00030461,0.0,0 STARLINK-3513,1 51756U 22016AU  22076.58334491 -.00030461  00000-0 -21326-3 0  9992,2 51756  53.2175  20.8362 0001057  82.2170 281.2996 15.73216038  4998,6727.849,91.532,350.426,349.00300000000016,0.0
51756.0,STARLINK-3513,PAYLOAD,2022-03-17 22:00:00,15.73217189,0.0001224,53.2176,19.1866,84.7972,7.6465,0.00022847,0.00031588,0.0,0 STARLINK-3513,1 51756U 22016AU  22076.91667824  .00031588  00000-0  22847-3 0  9996,2 51756  53.2176  19.1866 0001224  84.7972   7.6465 15.73217189  3697,6727.846,91.532,350.535,348.88800000000015,0.0
51756.0,STARLINK-3513,PAYLOAD,2022-03-18 08:00:01,15.73263002,0.0001103,53.2171,17.1265,71.0107,222.6303,-0.00035915,-0.00050855,0.0,0 STARLINK-3513,1 51756U 22016AU  22077.33334491 -.00050855  00000-0 -35915-3 0  9994,2 51756  53.2171  17.1265 0001103  71.0107 222.6303 15.73263002  5112,6727.715999999999,91.53,350.3230000000001,348.838,0.0
51756.0,STARLINK-3513,PAYLOAD,2022-03-18 14:00:01,15.73226272,0.0001092,53.2173,15.8877,84.4448,185.945,-0.00052629,-0.00073916,0.0,0 STARLINK-3513,1 51756U 22016AU  22077.58334491 -.00073916  00000-0 -52629-3 0  9995,2 51756  53.2173  15.8877 0001092  84.4448 185.9450 15.73226272  3717,6727.82,91.532,350.42,348.951,0.0
51756.0,STARLINK-3513,PAYLOAD,2022-03-18 22:00:00,15.73194523,0.0001186,53.2175,14.2385,89.355,269.9559,0.00016745,0.00022939,0.0,0 STARLINK-3513,1 51756U 22016AU  22077.91667824  .00022939  00000-0  16745-3 0  9997,2 51756  53.2175  14.2385 0001186  89.3550 269.9559 15.73194523  3769,6727.911,91.533,350.574,348.978,0.0
51756.0,STARLINK-3513,PAYLOAD,2022-03-19 02:00:01,15.7319436,0.0001235,53.2174,13.4149,81.3054,142.5289,0.00022202,0.00030645,0.0,0 STARLINK-3513,1 51756U 22016AU  22078.08335648  .00030645  00000-0  22202-3 0  9990,2 51756  53.2174  13.4149 0001235  81.3054 142.5289 15.73194360  5232,6727.911,91.534,350.607,348.945,0.0
51756.0,STARLINK-3513,PAYLOAD,2022-03-19 14:00:01,15.73202983,0.0001312,53.2179,10.9394,86.3035,90.8824,-6.0117e-05,-9.049e-05,0.0,0 STARLINK-3513,1 51756U 22016AU  22078.58334491 -.00009049  00000-0 -60117-4 0  9994,2 51756  53.2179  10.9394 0001312  86.3035  90.8824 15.73202983  3689,6727.887,91.533,350.634,348.869,0.0
51756.0,STARLINK-3513,PAYLOAD,2022-03-19 22:00:01,15.73213292,0.0001486,53.218,9.2903,88.6626,177.5017,0.00013068,0.00017769,0.0,0 STARLINK-3513,1 51756U 22016AU  22078.91668981  .00017769  00000-0  13068-3 0  9993,2 51756  53.2180   9.2903 0001486  88.6626 177.5017 15.73213292  5360,6727.857,91.532,350.722,348.723,0.0
51756.0,STARLINK-3513,PAYLOAD,2022-03-20 14:00:01,15.73187536,0.0001205,53.2174,5.9911,92.717,351.3134,0.00050443,0.00070733,0.0,0 STARLINK-3513,1 51756U 22016AU  22079.58334491  .00070733  00000-0  50443-3 0  9991,2 51756  53.2174   5.9911 0001205  92.7170 351.3134 15.73187536  3680,6727.931,91.534,350.606,348.985,0.0
51756.0,STARLINK-3513,PAYLOAD,2022-03-20 20:00:01,15.73269818,0.0001336,53.2175,4.7539,94.3608,326.3678,-0.00049101,-0.00069171,0.0,0 STARLINK-3513,1 51756U 22016AU  22079.83334491 -.00069171  00000-0 -49101-3 0  9994,2 51756  53.2175   4.7539 0001336  94.3608 326.3678 15.73269818  5505,6727.696,91.529,350.46,348.662,0.0
51756.0,STARLINK-3513,PAYLOAD,2022-03-20 22:00:01,15.73262269,0.0001348,53.2175,4.342,91.7173,81.3261,-0.00052499,-0.00073851,0.0,0 STARLINK-3513,1 51756U 22016AU  22079.91668981 -.00073851  00000-0 -52499-3 0  9991,2 51756  53.2175   4.3420 0001348  91.7173  81.3261 15.73262269  3700,6727.718000000003,91.53,350.49,348.676,0.0
51756.0,STARLINK-3513,PAYLOAD,2022-03-21 06:00:00,15.7321522,0.000126,53.2174,2.6941,83.9453,178.0024,0.0002964,0.00041209,0.0,0 STARLINK-3513,1 51756U 22016AU  22080.25001157  .00041209  00000-0  29640-3 0  9998,2 51756  53.2174   2.6941 0001260  83.9453 178.0024 15.73215220  5578,6727.852,91.532,350.564,348.869,0.0
51756.0,STARLINK-3513,PAYLOAD,2022-03-21 14:00:01,15.73209453,0.0001052,53.2177,1.0425,96.3959,254.513,-0.00033878,-0.00047913,0.0,0 STARLINK-3513,1 51756U 22016AU  22080.58334491 -.00047913  00000-0 -33878-3 0  9992,2 51756  53.2177   1.0425 0001052  96.3959 254.5130 15.73209453  5624,6727.868,91.533,350.441,349.025,0.0
51756.0,STARLINK-3513,PAYLOAD,2022-03-21 22:00:00,15.73167471,9.36e-05,53.2178,359.3937,90.9602,348.8575,4.7986e-05,6.111e-05,0.0,0 STARLINK-3513,1 51756U 22016AU  22080.91667824  .00006111  00000-0  47986-4 0  9997,2 51756  53.2178 359.3937 0000936  90.9602 348.8575 15.73167471  3695,6727.988,91.535,350.483,349.223,0.0
51756.0,STARLINK-3513,PAYLOAD,2022-03-22 06:00:00,15.73162545,9.17e-05,53.2173,357.7456,79.4197,89.2947,0.00060141,0.0008449999999999,0.0,0 STARLINK-3513,1 51756U 22016AU  22081.25001157  .00084500  00000-0  60141-3 0  9991,2 51756  53.2173 357.7456 0000917  79.4197  89.2947 15.73162545  5731,6728.002,91.535,350.4840000000001,349.25,0.0
51756.0,STARLINK-3513,PAYLOAD,2022-03-22 14:00:01,15.73205023,9.92e-05,53.2172,356.0941,95.8997,161.7339,-0.00023079,-0.00032889,0.0,0 STARLINK-3513,1 51756U 22016AU  22081.58334491 -.00032889  00000-0 -23079-3 0  9991,2 51756  53.2172 356.0941 0000992  95.8997 161.7339 15.73205023  5789,6727.880999999999,91.533,350.413,349.07800000000015,0.0
51756.0,STARLINK-3513,PAYLOAD,2022-03-22 20:00:01,15.73184701,0.0001134,53.2174,354.8573,98.4692,135.8678,0.00026371,0.00036526,0.0,0 STARLINK-3513,1 51756U 22016AU  22081.83334491  .00036526  00000-0  26371-3 0  9997,2 51756  53.2174 354.8573 0001134  98.4692 135.8678 15.73184701  5820,6727.939,91.534,350.56699999999995,349.041,0.0
51756.0,STARLINK-3513,PAYLOAD,2022-03-22 22:00:01,15.73200595,0.0001134,53.2173,354.4454,94.1854,252.4427,9.7381e-05,0.00013068,0.0,0 STARLINK-3513,1 51756U 22016AU  22081.91668981  .00013068  00000-0  97381-4 0  9996,2 51756  53.2173 354.4454 0001134  94.1854 252.4427 15.73200595  3709,6727.893,91.533,350.521,348.996,0.0
51756.0,STARLINK-3513,PAYLOAD,2022-03-23 14:00:01,15.73171134,0.0001226,53.2173,351.1454,96.2438,68.2107,0.00051545,0.00072254,0.0,0 STARLINK-3513,1 51756U 22016AU  22082.58334491  .00072254  00000-0  51545-3 0  9999,2 51756  53.2173 351.1454 0001226  96.2438  68.2107 15.73171134  5948,6727.977,91.535,350.667,349.01800000000014,0.0
51756.0,STARLINK-3513,PAYLOAD,2022-03-23 22:00:00,15.73237562,0.000133,53.2175,349.497,92.8837,160.4841,-9.7025e-06,-1.984e-05,0.0,0 STARLINK-3513,1 51756U 22016AU  22082.91667824 -.00001984  00000-0 -97025-5 0  9994,2 51756  53.2175 349.4970 0001330  92.8837 160.4841 15.73237562  3704,6727.788000000001,91.531,350.548,348.7580000000001,0.0
51756.0,STARLINK-3513,PAYLOAD,2022-03-24 06:00:00,15.73237177,0.0001188,53.2171,347.8482,83.8488,258.4908,-0.00025005,-0.0003562,0.0,0 STARLINK-3513,1 51756U 22016AU  22083.25001157 -.00035620  00000-0 -25005-3 0  9994,2 51756  53.2171 347.8482 0001188  83.8488 258.4908 15.73237177  6047,6727.7890000000025,91.531,350.45300000000015,348.855,0.0
51756.0,STARLINK-3513,PAYLOAD,2022-03-24 14:00:01,15.7315769,0.0001237,53.2171,346.1966,100.409,330.8948,0.00046635,0.00065219,0.0,0 STARLINK-3513,1 51756U 22016AU  22083.58334491  .00065219  00000-0  46635-3 0  9997,2 51756  53.2171 346.1966 0001237 100.4090 330.8948 15.73157690  3683,6728.016,91.536,350.713,349.0490000000001,0.0
51756.0,STARLINK-3513,PAYLOAD,2022-03-24 22:00:00,15.73203876,0.0001298,53.2172,344.5485,94.434,65.7614,0.00015681,0.00021447,0.0,0 STARLINK-3513,1 51756U 22016AU  22083.91667824  .00021447  00000-0  15681-3 0  9995,2 51756  53.2172 344.5485 0001298  94.4340  65.7614 15.73203876  3704,6727.884,91.533,350.622,348.876,0.0
51756.0,STARLINK-3513,PAYLOAD,2022-03-25 06:00:00,15.73260862,0.0001042,53.217,342.8996,90.8739,158.2614,-0.00025326,-0.00036102,0.0,0 STARLINK-3513,1 51756U 22016AU  22084.25001157 -.00036102  00000-0 -25326-3 0  9997,2 51756  53.2170 342.8996 0001042  90.8739 158.2614 15.73260862  6203,6727.722,91.53,350.288,348.886,0.0
51756.0,STARLINK-3513,PAYLOAD,2022-03-25 12:00:00,15.73228728,8.88e-05,53.2176,341.6607,102.2309,123.6479,-0.00052521,-0.00073773,0.0,0 STARLINK-3513,1 51756U 22016AU  22084.50001157 -.00073773  00000-0 -52521-3 0  9997,2 51756  53.2176 341.6607 0000888 102.2309 123.6479 15.73228728  6247,6727.813,91.532,350.276,349.081,0.0
